ONEWEB-0207             
1 48242U 21031AJ  25077.84159459  .00000087  00000+0  20080-3 0  9990
2 48242  87.9079  20.2283 0001671  83.8972 276.2349 13.14504281188471
ONEWEB-0208             
1 48243U 21031AK  25077.89949832  .00000120  00000+0  28890-3 0  9993
2 48243  87.9077  20.2308 0001778  74.5032 285.6294 13.14502697188494
ONEWEB-0200             
1 48244U 21031AL  25077.86300903 -.00000226  00000+0 -64498-3 0  9994
2 48244  87.9077  20.2315 0001804  73.1405 286.9922 13.14504927188414
ONEWEB-0217             
1 48245U 21031AM  25077.87886829 -.00000093  00000+0 -28476-3 0  9990
2 48245  87.9077  20.2129 0001804  69.5886 290.5437 13.14504748188367
ONEWEB-0211             
1 48767U 21045A   25077.80598020  .00000123  00000+0  29017-3 0  9994
2 48767  87.9133 349.8861 0002047  70.9303 289.2049 13.16071504184543
ONEWEB-0223             
1 48768U 21045B   25077.76196972  .00000058  00000+0  11948-3 0  9991
2 48768  87.9139 349.9152 0002264  70.9028 289.2348 13.15551903184524
ONEWEB-0230             
1 48769U 21045C   25077.80951243  .00000217  00000+0  54263-3 0  9991
2 48769  87.9117 349.9644 0001918  83.5617 276.5731 13.15547399184794
ONEWEB-0237             
1 48770U 21045D   25077.79842280  .00000010  00000+0 -78634-5 0  9993
2 48770  87.9139 349.9228 0002076  74.8370 285.2989 13.15546068184517
